{
  "type": "FeatureCollection",
  "features": [
    {
      "type": "Feature",
      "properties": {
        "norad_id": 24876,
        "name": "GPS BIIR-2  (PRN 13)",
        "group": "gps-ops",
        "lat": 32.94831085362292,
        "lon": 131.92459005937988,
        "alt_km": 19931.09827039715,
        "timestamp": "2025-12-11T18:59:46.331721+00:00",
        "meta_object_name": "GPS BIIR-2  (PRN 13)",
        "meta_object_id": "1997-035A",
        "meta_epoch": "2025-12-10T17:43:14.126880",
        "meta_mean_motion": 2.00563589,
        "meta_eccentricity": 0.0096757,
        "meta_inclination": 55.8943,
        "meta_ra_of_asc_node": 105.9471,
        "meta_arg_of_pericenter": 57.0036,
        "meta_mean_anomaly": 303.9018,
        "meta_ephemeris_type": 0,
        "meta_classification_type": "U",
        "meta_norad_cat_id": 24876,
        "meta_element_set_no": 999,
        "meta_rev_at_epoch": 20817,
        "meta_bstar": 0,
        "meta_mean_motion_dot": 2.2e-07,
        "meta_mean_motion_ddot": 0,
        "tle_line1": "1 24876U 97035A   25344.73835795  .00000022  00000+0  00000+0 0  9998",
        "tle_line2": "2 24876  55.8943 105.9471 0096757  57.0036 303.9018  2.00563589208175"
      },
      "geometry": {
        "type": "Point",
        "coordinates": [
          131.92459005937988,
          32.94831085362292
        ]
      }
    },
    {
      "type": "Feature",
      "properties": {
        "norad_id": 26360,
        "name": "GPS BIIR-4  (PRN 20)",
        "group": "gps-ops",
        "lat": 36.942906778633024,
        "lon": 175.17434133192063,
        "alt_km": 20210.673199221917,
        "timestamp": "2025-12-11T18:59:46.331757+00:00",
        "meta_object_name": "GPS BIIR-4  (PRN 20)",
        "meta_object_id": "2000-025A",
        "meta_epoch": "2025-12-11T02:52:32.652768",
        "meta_mean_motion": 2.00567805,
        "meta_eccentricity": 0.00388615,
        "meta_inclination": 55.0442,
        "meta_ra_of_asc_node": 26.9033,
        "meta_arg_of_pericenter": 241.8363,
        "meta_mean_anomaly": 126.4257,
        "meta_ephemeris_type": 0,
        "meta_classification_type": "U",
        "meta_norad_cat_id": 26360,
        "meta_element_set_no": 999,
        "meta_rev_at_epoch": 18750,
        "meta_bstar": 0,
        "meta_mean_motion_dot": -9.9e-07,
        "meta_mean_motion_ddot": 0,
        "tle_line1": "1 26360U 00025A   25345.11982237 -.00000099  00000+0  00000+0 0  9993",
        "tle_line2": "2 26360  55.0442  26.9033 0038861 241.8363 126.4257  2.00567805187506"
      },
      "geometry": {
        "type": "Point",
        "coordinates": [
          175.17434133192063,
          36.942906778633024
        ]
      }
    },
    {
      "type": "Feature",
      "properties": {
        "norad_id": 26407,
        "name": "GPS BIIR-5  (PRN 22)",
        "group": "gps-ops",
        "lat": -21.373504625097492,
        "lon": -153.3549067116932,
        "alt_km": 19899.05663742615,
        "timestamp": "2025-12-11T18:59:46.331790+00:00",
        "meta_object_name": "GPS BIIR-5  (PRN 22)",
        "meta_object_id": "2000-040A",
        "meta_epoch": "2025-12-10T20:12:24.039360",
        "meta_mean_motion": 2.00567911,
        "meta_eccentricity": 0.01261207,
        "meta_inclination": 54.8911,
        "meta_ra_of_asc_node": 222.6445,
        "meta_arg_of_pericenter": 301.7739,
        "meta_mean_anomaly": 65.4404,
        "meta_ephemeris_type": 0,
        "meta_classification_type": "U",
        "meta_norad_cat_id": 26407,
        "meta_element_set_no": 999,
        "meta_rev_at_epoch": 18617,
        "meta_bstar": 0,
        "meta_mean_motion_dot": 0,
        "meta_mean_motion_ddot": 0,
        "tle_line1": "1 26407U 00040A   25344.84194490  .00000000  00000+0  00000+0 0  9998",
        "tle_line2": "2 26407  54.8911 222.6445 0126120 301.7739  65.4404  2.00567911186173"
      },
      "geometry": {
        "type": "Point",
        "coordinates": [
          -153.3549067116932,
          -21.373504625097492
        ]
      }
    },
    {
      "type": "Feature",
      "properties": {
        "norad_id": 27663,
        "name": "GPS BIIR-8  (PRN 16)",
        "group": "gps-ops",
        "lat": 50.21240040639742,
        "lon": -15.044619269284267,
        "alt_km": 19965.90457568834,
        "timestamp": "2025-12-11T18:59:46.331806+00:00",
        "meta_object_name": "GPS BIIR-8  (PRN 16)",
        "meta_object_id": "2003-005A",
        "meta_epoch": "2025-12-10T07:26:08.155104",
        "meta_mean_motion": 2.00571007,
        "meta_eccentricity": 0.0147361,
        "meta_inclination": 54.9239,
        "meta_ra_of_asc_node": 222.475,
        "meta_arg_of_pericenter": 51.7666,
        "meta_mean_anomaly": 67.0717,
        "meta_ephemeris_type": 0,
        "meta_classification_type": "U",
        "meta_norad_cat_id": 27663,
        "meta_element_set_no": 999,
        "meta_rev_at_epoch": 16752,
        "meta_bstar": 0,
        "meta_mean_motion_dot": 1e-08,
        "meta_mean_motion_ddot": 0,
        "tle_line1": "1 27663U 03005A   25344.30981661  .00000001  00000+0  00000+0 0  9993",
        "tle_line2": "2 27663  54.9239 222.4750 0147361  51.7666  67.0717  2.00571007167524"
      },
      "geometry": {
        "type": "Point",
        "coordinates": [
          -15.044619269284267,
          50.21240040639742
        ]
      }
    },
    {
      "type": "Feature",
      "properties": {
        "norad_id": 28190,
        "name": "GPS BIIR-11 (PRN 19)",
        "group": "gps-ops",
        "lat": -54.98072696232235,
        "lon": -168.94171957445874,
        "alt_km": 20241.059325111604,
        "timestamp": "2025-12-11T18:59:46.331820+00:00",
        "meta_object_name": "GPS BIIR-11 (PRN 19)",
        "meta_object_id": "2004-009A",
        "meta_epoch": "2025-12-10T22:23:41.078112",
        "meta_mean_motion": 2.00560808,
        "meta_eccentricity": 0.0108323,
        "meta_inclination": 54.9873,
        "meta_ra_of_asc_node": 283.2917,
        "meta_arg_of_pericenter": 167.6172,
        "meta_mean_anomaly": 200.0934,
        "meta_ephemeris_type": 0,
        "meta_classification_type": "U",
        "meta_norad_cat_id": 28190,
        "meta_element_set_no": 999,
        "meta_rev_at_epoch": 15917,
        "meta_bstar": 0,
        "meta_mean_motion_dot": -6.8e-07,
        "meta_mean_motion_ddot": 0,
        "tle_line1": "1 28190U 04009A   25344.93311433 -.00000068  00000+0  00000+0 0  9991",
        "tle_line2": "2 28190  54.9873 283.2917 0108323 167.6172 200.0934  2.00560808159177"
      },
      "geometry": {
        "type": "Point",
        "coordinates": [
          -168.94171957445874,
          -54.98072696232235
        ]
      }
    },
    {
      "type": "Feature",
      "properties": {
        "norad_id": 28474,
        "name": "GPS BIIR-13 (PRN 02)",
        "group": "gps-ops",
        "lat": -25.63707949358139,
        "lon": -47.02685122469857,
        "alt_km": 19755.484434022434,
        "timestamp": "2025-12-11T18:59:46.331833+00:00",
        "meta_object_name": "GPS BIIR-13 (PRN 02)",
        "meta_object_id": "2004-045A",
        "meta_epoch": "2025-12-10T20:11:07.899360",
        "meta_mean_motion": 2.00569385,
        "meta_eccentricity": 0.0170728,
        "meta_inclination": 55.2416,
        "meta_ra_of_asc_node": 332.4821,
        "meta_arg_of_pericenter": 309.1641,
        "meta_mean_anomaly": 52.133,
        "meta_ephemeris_type": 0,
        "meta_classification_type": "U",
        "meta_norad_cat_id": 28474,
        "meta_element_set_no": 999,
        "meta_rev_at_epoch": 15465,
        "meta_bstar": 0,
        "meta_mean_motion_dot": -8.5e-07,
        "meta_mean_motion_ddot": 0,
        "tle_line1": "1 28474U 04045A   25344.84106365 -.00000085  00000+0  00000+0 0  9991",
        "tle_line2": "2 28474  55.2416 332.4821 0170728 309.1641  52.1330  2.00569385154655"
      },
      "geometry": {
        "type": "Point",
        "coordinates": [
          -47.02685122469857,
          -25.63707949358139
        ]
      }
    },
    {
      "type": "Feature",
      "properties": {
        "norad_id": 28874,
        "name": "GPS BIIRM-1 (PRN 17)",
        "group": "gps-ops",
        "lat": -51.89245315000131,
        "lon": -142.29805956555333,
        "alt_km": 19839.358479051778,
        "timestamp": "2025-12-11T18:59:46.331846+00:00",
        "meta_object_name": "GPS BIIRM-1 (PRN 17)",
        "meta_object_id": "2005-038A",
        "meta_epoch": "2025-12-10T14:00:21.521088",
        "meta_mean_motion": 2.00578486,
        "meta_eccentricity": 0.0131701,
        "meta_inclination": 55.0338,
        "meta_ra_of_asc_node": 280.7877,
        "meta_arg_of_pericenter": 293.4518,
        "meta_mean_anomaly": 200.7371,
        "meta_ephemeris_type": 0,
        "meta_classification_type": "U",
        "meta_norad_cat_id": 28874,
        "meta_element_set_no": 999,
        "meta_rev_at_epoch": 14805,
        "meta_bstar": 0,
        "meta_mean_motion_dot": -6.4e-07,
        "meta_mean_motion_ddot": 0,
        "tle_line1": "1 28874U 05038A   25344.58358242 -.00000064  00000+0  00000+0 0  9999",
        "tle_line2": "2 28874  55.0338 280.7877 0131701 293.4518 200.7371  2.00578486148057"
      },
      "geometry": {
        "type": "Point",
        "coordinates": [
          -142.29805956555333,
          -51.89245315000131
        ]
      }
    }
  ]
}